OBJECT_NAME,OBJECT_ID,EPOCH,MEAN_MOTION,ECCENTRICITY,INCLINATION,RA_OF_ASC_NODE,ARG_OF_PERICENTER,MEAN_ANOMALY,EPHEMERIS_TYPE,CLASSIFICATION_TYPE,NORAD_CAT_ID,ELEMENT_SET_NO,REV_AT_EPOCH,BSTAR,MEAN_MOTION_DOT,MEAN_MOTION_DDOT
ONEWEB-0012,2019-010A,2026-06-26T16:14:35.011104,13.16595164,.0001821,87.9089,226.9009,86.3702,273.7637,0,U,44057,999,35281,-.6176E-4,-.11E-6,0
ONEWEB-0010,2019-010B,2026-06-26T16:51:03.662208,13.16595460,.0002025,87.9089,226.8914,105.7810,254.3544,0,U,44058,999,35286,-.79351E-5,.1E-6,0
ONEWEB-0008,2019-010C,2026-06-26T13:48:39.116736,13.16596214,.0002318,87.9087,226.9121,93.8647,266.2749,0,U,44059,999,35296,.31002E-3,.131E-5,0
ONEWEB-0007,2019-010D,2026-06-26T16:39:29.835648,13.15548825,.0001726,87.9001,257.3273,103.2525,256.8798,0,U,44060,999,35262,-.83786E-4,-.19E-6,0
ONEWEB-0006,2019-010E,2026-06-26T16:45:12.352032,13.15537363,.0002084,87.9012,257.2915,103.8910,256.2452,0,U,44061,999,35267,-.34493E-2,-.1285E-4,0
ONEWEB-0011,2019-010F,2026-06-26T15:59:33.714816,13.15548154,.0002171,87.9008,257.3077,102.8029,257.3344,0,U,44062,999,35266,.33053E-3,.137E-5,0
ONEWEB-0013,2020-008A,2026-06-26T09:58:42.987648,13.09454886,.0001856,87.8507,50.9628,51.5660,308.5633,0,U,45131,999,30727,.1533E-2,.541E-5,0
ONEWEB-0017,2020-008B,2026-06-26T07:34:09.120576,13.10363184,.0001791,87.8822,34.4503,92.0444,268.0888,0,U,45132,999,30914,-.13144E-2,-.446E-5,0
ONEWEB-0020,2020-008C,2026-06-26T08:40:06.197376,13.10386303,.0001828,87.8828,34.4397,86.2032,273.9305,0,U,45133,999,30954,-.59705E-2,-.2071E-4,0
ONEWEB-0021,2020-008D,2026-06-26T14:31:56.046720,13.10407222,.0001583,87.8818,34.4063,85.2810,274.8498,0,U,45134,999,30988,-.20675E-1,-.7202E-4,0
ONEWEB-0023,2020-008F,2026-06-26T12:57:54.079200,13.10373073,.0001954,87.8827,34.4022,80.5249,279.6100,0,U,45136,999,30930,-.85864E-3,-.287E-5,0
ONEWEB-0024,2020-008G,2026-06-26T14:07:42.118752,13.10381664,.0001738,87.8836,34.3853,88.3866,271.7461,0,U,45137,999,30947,-.35523E-2,-.1227E-4,0
ONEWEB-0025,2020-008H,2026-06-26T14:07:22.899072,13.10213528,.0002597,87.8841,34.3753,110.3181,249.8226,0,U,45138,999,30980,.95858E-1,.33518E-3,0
ONEWEB-0026,2020-008J,2026-06-26T13:02:01.381056,13.11416567,.0001897,87.8880,19.2053,91.6165,268.5180,0,U,45139,999,31233,.12487E-2,.455E-5,0
ONEWEB-0028,2020-008K,2026-06-26T06:56:59.890848,13.11416709,.0001765,87.8877,19.2640,68.9120,291.2196,0,U,45140,999,30981,-.12773E-2,-.44E-5,0
ONEWEB-0032,2020-008L,2026-06-26T07:36:45.992736,13.10364619,.0001946,87.8823,34.4519,69.9204,290.2133,0,U,45141,999,30949,.79301E-3,.289E-5,0
ONEWEB-0033,2020-008M,2026-06-26T08:49:52.347936,13.10373832,.0001867,87.8821,34.4480,101.3596,258.7741,0,U,45142,999,30941,.12013E-2,.432E-5,0
ONEWEB-0035,2020-008N,2026-06-26T07:29:25.198944,13.10373836,.0001848,87.8821,34.4525,88.0052,272.1287,0,U,45143,999,30913,-.91909E-3,-.308E-5,0
ONEWEB-0036,2020-008P,2026-06-26T08:47:06.045216,13.10210808,.0001889,87.8838,34.4559,77.5467,282.5871,0,U,45144,999,30956,.72662E-1,.25387E-3,0
ONEWEB-0038,2020-008Q,2026-06-26T13:16:52.366368,13.11415191,.0000487,87.8896,19.2134,154.0675,206.0478,0,U,45145,999,31155,.13524E-2,.492E-5,0
ONEWEB-0039,2020-008R,2026-06-26T07:04:48.618624,13.10370568,.0001714,87.8822,34.4530,69.0718,291.0592,0,U,45146,999,30935,.19219E-2,.684E-5,0
ONEWEB-0040,2020-008S,2026-06-26T14:14:49.375392,13.10379056,.0001874,87.8830,34.4062,75.8579,284.2757,0,U,45147,999,30909,.20668E-2,.734E-5,0
ONEWEB-0043,2020-008U,2026-06-26T03:17:37.701024,13.10350003,.00018703,87.8825,34.4839,61.6599,298.4717,0,U,45149,999,30935,-.64618916E-2,-.2242E-4,0
ONEWEB-0044,2020-008V,2026-06-26T13:08:55.091040,13.10350144,.0001755,87.8832,34.4028,79.6777,280.4548,0,U,45150,999,30970,-.1352E-2,-.459E-5,0
ONEWEB-0045,2020-008W,2026-06-26T13:09:21.077568,13.11416215,.0001723,87.8891,19.1964,84.1585,275.9740,0,U,45151,999,31163,.14116E-2,.513E-5,0
ONEWEB-0047,2020-008X,2026-06-26T07:29:01.555584,13.10373910,.0001669,87.8831,34.4491,90.4828,269.6491,0,U,45152,999,30939,-.10379E-2,-.35E-5,0
ONEWEB-0048,2020-008Y,2026-06-26T07:21:55.081728,13.10379812,.0001814,87.8822,34.4707,86.9738,273.1597,0,U,45153,999,30900,-.47604E-2,-.1649E-4,0
ONEWEB-0049,2020-008Z,2026-06-26T12:56:27.030336,13.10373164,.0002184,87.8819,34.4136,79.2103,280.9270,0,U,45154,999,30925,-.77794E-3,-.259E-5,0
ONEWEB-0051,2020-008AA,2026-06-26T13:06:55.658592,13.11419484,.0001856,87.8884,19.2036,87.4696,272.6644,0,U,45155,999,31231,.42567E-3,.164E-5,0
ONEWEB-0052,2020-008AB,2026-06-26T13:26:12.278112,13.10359061,.0002156,87.8831,34.3962,77.1216,283.0152,0,U,45156,999,30916,-.16569E-2,-.566E-5,0
